[{"ndeg_mobilier": "P14.AB.00016", "latitude": "48.82739", "longitude": "2.32673", "adresse": "83 AVENUE DU GENERAL LECLERC", "codee_insee": 75114, "code_postal": "75014", "arrondissement": "PARIS 14E ARRONDISSEMENT", "complement_adresse": "AL\u00c9SIA - G\u00c9N\u00c9RAL LECLERC", "xy": {"lon": 2.32673, "lat": 48.82739}},{"ndeg_mobilier": "P20.AB.00081", "latitude": "48.8673", "longitude": "2.38308", "adresse": "6 BOULEVARD DE BELLEVILLE", "codee_insee": 75120, "code_postal": "75020", "arrondissement": "PARIS 20E ARRONDISSEMENT", "complement_adresse": "Belleville - M\u00e9nilmontant", "xy": {"lon": 2.38308, "lat": 48.8673}},{"ndeg_mobilier": "P05.AB.00061", "latitude": "48.8436", "longitude": "2.36434", "adresse": "FACE 1 BOULEVARD DE L'HOPITAL", "codee_insee": 75105, "code_postal": "75005", "arrondissement": "PARIS 05E ARRONDISSEMENT", "complement_adresse": "GARE D'AUSTERLITZ", "xy": {"lon": 2.36434, "lat": 48.8436}},{"ndeg_mobilier": "P14.AB.00109", "latitude": "48.84084", "longitude": "2.32172", "adresse": "41/43  AVENUE DU MAINE", "codee_insee": 75114, "code_postal": "75014", "arrondissement": "PARIS 14E ARRONDISSEMENT", "complement_adresse": "GARE MONTPARNASSE", "xy": {"lon": 2.32172, "lat": 48.84084}},{"ndeg_mobilier": "P11.AB.00083", "latitude": "48.84864", "longitude": "2.39459", "adresse": "PLACE DE LA NATION SUR TP", "codee_insee": 75111, "code_postal": "75011", "arrondissement": "PARIS 11E ARRONDISSEMENT", "complement_adresse": "NATION - SAINT-ANTOINE", "xy": {"lon": 2.39459, "lat": 48.84864}},{"ndeg_mobilier": "P18.AB.00018", "latitude": "48.89057", "longitude": "2.35993", "adresse": "8 RUE DE LA CHAPELLE", "codee_insee": 75118, "code_postal": "75018", "arrondissement": "PARIS 18E ARRONDISSEMENT", "complement_adresse": "ORDENER - MARX DORMOY", "xy": {"lon": 2.35993, "lat": 48.89057}},{"ndeg_mobilier": "P06.AB.00063", "latitude": "48.85361", "longitude": "2.33393", "adresse": "145 BOULEVARD SAINT GERMAIN", "codee_insee": 75106, "code_postal": "75006", "arrondissement": "PARIS 06E ARRONDISSEMENT", "complement_adresse": "SAINT-GERMAIN-DES-PR\u00c9S", "xy": {"lon": 2.33393, "lat": 48.85361}},{"ndeg_mobilier": "P08.AB.00141", "latitude": "48.86484", "longitude": "2.30266", "adresse": "PLACE DE LA REINE ASTRID", "codee_insee": 75108, "code_postal": "75008", "arrondissement": "PARIS 08E ARRONDISSEMENT", "complement_adresse": "ALMA - MARCEAU", "xy": {"lon": 2.30266, "lat": 48.86484}},{"ndeg_mobilier": "P15.AB.00007", "latitude": "48.8404", "longitude": "2.31555", "adresse": "65 BOULEVARD DE VAUGIRARD", "codee_insee": 75115, "code_postal": "75015", "arrondissement": "PARIS 15E ARRONDISSEMENT", "complement_adresse": "ARMORIQUE - MUS\u00c9E POSTAL", "xy": {"lon": 2.31555, "lat": 48.8404}},{"ndeg_mobilier": "P15.AB.00158", "latitude": "48.84564", "longitude": "2.27769", "adresse": "RUE DE LA CONVENTION", "codee_insee": 75115, "code_postal": "75015", "arrondissement": "PARIS 15E ARRONDISSEMENT", "complement_adresse": "JAVEL", "xy": {"lon": 2.27769, "lat": 48.84564}},{"ndeg_mobilier": "P16.AB.00094", "latitude": "48.84781", "longitude": "2.26475", "adresse": "47 RUE D'AUTEUIL", "codee_insee": 75116, "code_postal": "75016", "arrondissement": "PARIS 16E ARRONDISSEMENT", "complement_adresse": "MICHEL-ANGE - AUTEUIL", "xy": {"lon": 2.26475, "lat": 48.84781}},{"ndeg_mobilier": "P04.AB.00052", "latitude": "48.85498", "longitude": "2.36206", "adresse": "94 RUE SAINT ANTOINE", "codee_insee": 75104, "code_postal": "75004", "arrondissement": "PARIS 04E ARRONDISSEMENT", "complement_adresse": "SAINT-PAUL", "xy": {"lon": 2.36206, "lat": 48.85498}},{"ndeg_mobilier": "P19.AB.00002", "latitude": "48.87629", "longitude": "2.38002", "adresse": "49 AVENUE SIMON BOLIVAR", "codee_insee": 75119, "code_postal": "75019", "arrondissement": "PARIS 19E ARRONDISSEMENT", "complement_adresse": "Botzaris - Buttes Chaumont", "xy": {"lon": 2.38002, "lat": 48.87629}},{"ndeg_mobilier": "P07.AB.00045", "latitude": "48.85459", "longitude": "2.30614", "adresse": "41 AVENUE LA MOTTE-PICQUET", "codee_insee": 75107, "code_postal": "75007", "arrondissement": "PARIS 07E ARRONDISSEMENT", "complement_adresse": "\u00c9COLE MILITAIRE", "xy": {"lon": 2.30614, "lat": 48.85459}},{"ndeg_mobilier": "P17.AB.00113", "latitude": "48.88783", "longitude": "2.32558", "adresse": "3 AVENUE DE SAINT OUEN", "codee_insee": 75117, "code_postal": "75017", "arrondissement": "PARIS 17E ARRONDISSEMENT", "complement_adresse": "LA FOURCHE", "xy": {"lon": 2.32558, "lat": 48.88783}},{"ndeg_mobilier": "P08.AB.00074", "latitude": "48.87751", "longitude": "2.31681", "adresse": "60 BOULEVARD MALESHERBES", "codee_insee": 75108, "code_postal": "75008", "arrondissement": "PARIS 08E ARRONDISSEMENT", "complement_adresse": "LISBONNE - MAIRIE DU 8E", "xy": {"lon": 2.31681, "lat": 48.87751}},{"ndeg_mobilier": "P15.AB.00193", "latitude": "48.84891", "longitude": "2.28231", "adresse": "3 RUE LINOIS", "codee_insee": 75115, "code_postal": "75015", "arrondissement": "PARIS 15E ARRONDISSEMENT", "complement_adresse": "PONT DE GRENELLE - PLACE FERNAND FOREST", "xy": {"lon": 2.28231, "lat": 48.84891}},{"ndeg_mobilier": "P14.AB.00118", "latitude": "48.82752", "longitude": "2.305", "adresse": "14 PLACE DE LA PORTE DE VANVES", "codee_insee": 75114, "code_postal": "75014", "arrondissement": "PARIS 14E ARRONDISSEMENT", "complement_adresse": "PORTE DE VANVES", "xy": {"lon": 2.305, "lat": 48.82752}},{"ndeg_mobilier": "P06.AB.00015", "latitude": "48.84615", "longitude": "2.32595", "adresse": "128 RUE DE RENNES", "codee_insee": 75106, "code_postal": "75006", "arrondissement": "PARIS 06E ARRONDISSEMENT", "complement_adresse": "RENNES - SAINT-PLACIDE", "xy": {"lon": 2.32595, "lat": 48.84615}},{"ndeg_mobilier": "P19.AB.00714", "latitude": "48.87678", "longitude": "2.39238", "adresse": "N\u00b0 25 RUE DES FETES", "codee_insee": 75119, "code_postal": "75019", "arrondissement": "PARIS 19E ARRONDISSEMENT", "complement_adresse": "PLACE DES F\u00caTES", "xy": {"lon": 2.39238, "lat": 48.87678}},{"ndeg_mobilier": "P19.AB.00106", "latitude": "48.88873", "longitude": "2.39581", "adresse": "BOULEVARD SERURIER", "codee_insee": 75119, "code_postal": "75019", "arrondissement": "PARIS 19E ARRONDISSEMENT", "complement_adresse": "PORTE DE PANTIN", "xy": {"lon": 2.39581, "lat": 48.88873}},{"ndeg_mobilier": "P14.AB.00037", "latitude": "48.82363", "longitude": "2.32577", "adresse": "123 AVENUE DU GENERAL LECLERC", "codee_insee": 75114, "code_postal": "75014", "arrondissement": "PARIS 14E ARRONDISSEMENT", "complement_adresse": "Porte d'Orl\u00e9ans", "xy": {"lon": 2.32577, "lat": 48.82363}},{"ndeg_mobilier": "P18.AB.00133", "latitude": "48.89636", "longitude": "2.33824", "adresse": "133 DAMREMONT", "codee_insee": 75118, "code_postal": "75018", "arrondissement": "PARIS 18E ARRONDISSEMENT", "complement_adresse": "POTEAU - BELLIARD", "xy": {"lon": 2.33824, "lat": 48.89636}},{"ndeg_mobilier": "P14.AB.00073", "latitude": "48.83379", "longitude": "2.33153", "adresse": "30 PLACE DENFERT ROCHEREAU", "codee_insee": 75114, "code_postal": "75014", "arrondissement": "PARIS 14E ARRONDISSEMENT", "complement_adresse": "DENFERT-ROCHEREAU", "xy": {"lon": 2.33153, "lat": 48.83379}},{"ndeg_mobilier": "P14.AB.00027", "latitude": "48.83231", "longitude": "2.32502", "adresse": "FACE 178 AVENUE DU MAINE", "codee_insee": 75114, "code_postal": "75014", "arrondissement": "PARIS 14E ARRONDISSEMENT", "complement_adresse": "MAIRIE DU 14E", "xy": {"lon": 2.32502, "lat": 48.83231}},{"ndeg_mobilier": "P12.AB.00117", "latitude": "48.83572", "longitude": "2.40627", "adresse": "275 AVENUE DAUMESNIL", "codee_insee": 75112, "code_postal": "75012", "arrondissement": "PARIS 12E ARRONDISSEMENT", "complement_adresse": "Porte Dor\u00e9e", "xy": {"lon": 2.40627, "lat": 48.83572}},{"ndeg_mobilier": "P04.AB.00004", "latitude": "48.85976", "longitude": "2.35258", "adresse": "FACE 22 RUE DU RENARD", "codee_insee": 75104, "code_postal": "75004", "arrondissement": "PARIS 04E ARRONDISSEMENT", "complement_adresse": "CENTRE GEORGES POMPIDOU", "xy": {"lon": 2.35258, "lat": 48.85976}},{"ndeg_mobilier": "P08.AB.00028", "latitude": "48.86959", "longitude": "2.30802", "adresse": "23 AVENUE DES CHAMPS ELYSEES", "codee_insee": 75108, "code_postal": "75008", "arrondissement": "PARIS 08E ARRONDISSEMENT", "complement_adresse": "ROND-POINT DES CHAMPS-\u00c9LYS\u00c9ES", "xy": {"lon": 2.30802, "lat": 48.86959}},{"ndeg_mobilier": "P08.AB.00062", "latitude": "48.87394", "longitude": "2.29639", "adresse": "46 AVENUE FRIEDLAND", "codee_insee": 75108, "code_postal": "75008", "arrondissement": "PARIS 08E ARRONDISSEMENT", "complement_adresse": "CHARLES DE GAULLE - \u00c9TOILE - FRIEDLAND", "xy": {"lon": 2.29639, "lat": 48.87394}},{"ndeg_mobilier": "P07.AB.00034", "latitude": "48.84797", "longitude": "2.31595", "adresse": "56 BOULEVARD DES INVALIDES", "codee_insee": 75107, "code_postal": "75007", "arrondissement": "PARIS 07E ARRONDISSEMENT", "complement_adresse": "DUROC", "xy": {"lon": 2.31595, "lat": 48.84797}},{"ndeg_mobilier": "P20.AB.00029", "latitude": "48.8649", "longitude": "2.39753", "adresse": "40 AVENUE GAMBETTA", "codee_insee": 75120, "code_postal": "75020", "arrondissement": "PARIS 20E ARRONDISSEMENT", "complement_adresse": "GAMBETTA", "xy": {"lon": 2.39753, "lat": 48.8649}},{"ndeg_mobilier": "P02.AB.00026", "latitude": "48.8699", "longitude": "2.33268", "adresse": "38 AVENUE DE L'OPERA", "codee_insee": 75102, "code_postal": "75002", "arrondissement": "PARIS 02E ARRONDISSEMENT", "complement_adresse": "OP\u00c9RA - 4 SEPTEMBRE", "xy": {"lon": 2.33268, "lat": 48.8699}},{"ndeg_mobilier": "P03.AB.00007", "latitude": "48.86496", "longitude": "2.36005", "adresse": "FACE 171 RUE DU TEMPLE", "codee_insee": 75103, "code_postal": "75003", "arrondissement": "PARIS 03E ARRONDISSEMENT", "complement_adresse": "SQUARE DU TEMPLE", "xy": {"lon": 2.36005, "lat": 48.86496}},{"ndeg_mobilier": "P15.AB.00073", "latitude": "48.83771", "longitude": "2.29706", "adresse": "335 RUE DE VAUGIRARD", "codee_insee": 75115, "code_postal": "75015", "arrondissement": "PARIS 15E ARRONDISSEMENT", "complement_adresse": "CONVENTION - VAUGIRARD", "xy": {"lon": 2.29706, "lat": 48.83771}},{"ndeg_mobilier": "P10.AB.00701", "latitude": "48.87989", "longitude": "2.35554", "adresse": "4 PLACE NAPOLEON III", "codee_insee": 75110, "code_postal": "75010", "arrondissement": "PARIS 10E ARRONDISSEMENT", "complement_adresse": "GARE DU NORD - DUNKERQUE", "xy": {"lon": 2.35554, "lat": 48.87989}},{"ndeg_mobilier": "P14.AB.00017", "latitude": "48.83946", "longitude": "2.33758", "adresse": "127 BOULEVARD PORT ROYAL", "codee_insee": 75114, "code_postal": "75014", "arrondissement": "PARIS 14E ARRONDISSEMENT", "complement_adresse": "OBSERVATOIRE PORT ROYAL", "xy": {"lon": 2.33758, "lat": 48.83946}},{"ndeg_mobilier": "P15.AB.00045", "latitude": "48.83727", "longitude": "2.27751", "adresse": "230 RUE SAINT CHARLES", "codee_insee": 75115, "code_postal": "75015", "arrondissement": "PARIS 15E ARRONDISSEMENT", "complement_adresse": "PLACE BALARD", "xy": {"lon": 2.27751, "lat": 48.83727}},{"ndeg_mobilier": "P16.AB.00167", "latitude": "48.86418", "longitude": "2.27715", "adresse": "60/62 AVENUE HENRI MARTIN", "codee_insee": 75116, "code_postal": "75016", "arrondissement": "PARIS 16E ARRONDISSEMENT", "complement_adresse": "POMPE - MAIRIE DU 16E", "xy": {"lon": 2.27715, "lat": 48.86418}},{"ndeg_mobilier": "P10.AB.00062", "latitude": "48.86779", "longitude": "2.36414", "adresse": "12 PLACE DE LA REPUBLIQUE", "codee_insee": 75110, "code_postal": "75010", "arrondissement": "PARIS 10E ARRONDISSEMENT", "complement_adresse": "R\u00c9PUBLIQUE", "xy": {"lon": 2.36414, "lat": 48.86779}},{"ndeg_mobilier": "P19.AB.00069", "latitude": "48.87944", "longitude": "2.40098", "adresse": "BOULEVARD D ALGERIE", "codee_insee": 75119, "code_postal": "75019", "arrondissement": "PARIS 19E ARRONDISSEMENT", "complement_adresse": "H\u00d4PITAL ROBERT DEBR\u00c9", "xy": {"lon": 2.40098, "lat": 48.87944}},{"ndeg_mobilier": "P20.AB.00071", "latitude": "48.87661", "longitude": "2.40639", "adresse": "FACE 261 AVENUE GAMBETTA", "codee_insee": 75120, "code_postal": "75020", "arrondissement": "PARIS 20E ARRONDISSEMENT", "complement_adresse": "PORTE DES LILAS-M\u00c9TRO", "xy": {"lon": 2.40639, "lat": 48.87661}},{"ndeg_mobilier": "P20.AB.00119", "latitude": "48.84798", "longitude": "2.40628", "adresse": "DEV N\u00b0 3 RUE DES PYRENEES", "codee_insee": 75120, "code_postal": "75020", "arrondissement": "PARIS 20E ARRONDISSEMENT", "complement_adresse": "COURS DE VINCENNES", "xy": {"lon": 2.40628, "lat": 48.84798}},{"ndeg_mobilier": "P10.AB.00025", "latitude": "48.8757", "longitude": "2.35772", "adresse": "89 BOULEVARD DE STRASBOURG", "codee_insee": 75110, "code_postal": "75010", "arrondissement": "PARIS 10E ARRONDISSEMENT", "complement_adresse": "GARE DE L'EST", "xy": {"lon": 2.35772, "lat": 48.8757}},{"ndeg_mobilier": "P12.AB.00011", "latitude": "48.84813", "longitude": "2.39778", "adresse": "4/6 AVENUE DU TRONE", "codee_insee": 75112, "code_postal": "75012", "arrondissement": "PARIS 12E ARRONDISSEMENT", "complement_adresse": "NATION-TR\u00d4NE", "xy": {"lon": 2.39778, "lat": 48.84813}},{"ndeg_mobilier": "P13.AB.00034", "latitude": "48.82782", "longitude": "2.37177", "adresse": "45 RUE DE TOLBIAC", "codee_insee": 75113, "code_postal": "75013", "arrondissement": "PARIS 13E ARRONDISSEMENT", "complement_adresse": "PATAY - TOLBIAC", "xy": {"lon": 2.37177, "lat": 48.82782}},{"ndeg_mobilier": "P13.AB.00060", "latitude": "48.83287", "longitude": "2.35466", "adresse": "79 AVENUE DES GOBELINS", "codee_insee": 75113, "code_postal": "75013", "arrondissement": "PARIS 13E ARRONDISSEMENT", "complement_adresse": "Place d'Italie - Mairie du 13e", "xy": {"lon": 2.35466, "lat": 48.83287}},{"ndeg_mobilier": "P18.AB.00117", "latitude": "48.89725", "longitude": "2.35931", "adresse": "FACE 98 RUE DE LA CHAPELLE", "codee_insee": 75118, "code_postal": "75018", "arrondissement": "PARIS 18E ARRONDISSEMENT", "complement_adresse": "PORTE DE LA CHAPELLE", "xy": {"lon": 2.35931, "lat": 48.89725}},{"ndeg_mobilier": "P16.AB.00031", "latitude": "48.86982", "longitude": "2.28602", "adresse": "89 AVENUE VICTOR HUGO", "codee_insee": 75116, "code_postal": "75016", "arrondissement": "PARIS 16E ARRONDISSEMENT", "complement_adresse": "VICTOR HUGO - POINCAR\u00c9", "xy": {"lon": 2.28602, "lat": 48.86982}},{"ndeg_mobilier": "P09.AB.00027", "latitude": "48.87382", "longitude": "2.32752", "adresse": "64/66 BOULEVARD HAUSSMANN", "codee_insee": 75109, "code_postal": "75009", "arrondissement": "PARIS 09E ARRONDISSEMENT", "complement_adresse": "HAVRE - CAUMARTIN", "xy": {"lon": 2.32752, "lat": 48.87382}},{"ndeg_mobilier": "P20.AB.00078", "latitude": "48.86688", "longitude": "2.38315", "adresse": "BOULEVARD DE MENILMONTANT", "codee_insee": 75120, "code_postal": "75020", "arrondissement": "PARIS 20E ARRONDISSEMENT", "complement_adresse": "Belleville - M\u00e9nilmontant", "xy": {"lon": 2.38315, "lat": 48.86688}},{"ndeg_mobilier": "P01.AB.00003", "latitude": "48.86408", "longitude": "2.33498", "adresse": "3 AVENUE DE L'OPERA", "codee_insee": 75101, "code_postal": "75001", "arrondissement": "PARIS 01ER ARRONDISSEMENT", "complement_adresse": "PALAIS ROYAL - COMEDIE FRANCAISE", "xy": {"lon": 2.33498, "lat": 48.86408}},{"ndeg_mobilier": "P09.AB.00007", "latitude": "48.88321", "longitude": "2.32767", "adresse": "86 RUE DE CLICHY", "codee_insee": 75109, "code_postal": "75009", "arrondissement": "PARIS 09E ARRONDISSEMENT", "complement_adresse": "PLACE DE CLICHY", "xy": {"lon": 2.32767, "lat": 48.88321}},{"ndeg_mobilier": "P03.AB.00006", "latitude": "48.8596", "longitude": "2.36149", "adresse": "2 RUE DES QUATRE FILS", "codee_insee": 75103, "code_postal": "75003", "arrondissement": "PARIS 03E ARRONDISSEMENT", "complement_adresse": "RUE VIEILLE DU TEMPLE", "xy": {"lon": 2.36149, "lat": 48.8596}},{"ndeg_mobilier": "P18.AB.00084", "latitude": "48.89409", "longitude": "2.33207", "adresse": "196 RUE CHAMPIONNET", "codee_insee": 75118, "code_postal": "75018", "arrondissement": "PARIS 18E ARRONDISSEMENT", "complement_adresse": "VAUVENARGUES", "xy": {"lon": 2.33207, "lat": 48.89409}},{"ndeg_mobilier": "P17.AB.00133", "latitude": "48.88908", "longitude": "2.31487", "adresse": "87 RUE MSTISLAV ROSTROPOVITCH", "codee_insee": 75117, "code_postal": "75017", "arrondissement": "PARIS 17E ARRONDISSEMENT", "complement_adresse": "Berthier - Rostropovitch", "xy": {"lon": 2.31487, "lat": 48.88908}},{"ndeg_mobilier": "P17.AB.00086", "latitude": "48.89293", "longitude": "2.32675", "adresse": "73 RUE GUY MOQUET", "codee_insee": 75117, "code_postal": "75017", "arrondissement": "PARIS 17E ARRONDISSEMENT", "complement_adresse": "GUY M\u00d4QUET", "xy": {"lon": 2.32675, "lat": 48.89293}},{"ndeg_mobilier": "P05.AB.00065", "latitude": "48.84666", "longitude": "2.34399", "adresse": "FACE 3 RUE SOUFFLOT", "codee_insee": 75105, "code_postal": "75005", "arrondissement": "PARIS 05E ARRONDISSEMENT", "complement_adresse": "PANTH\u00c9ON", "xy": {"lon": 2.34399, "lat": 48.84666}},{"ndeg_mobilier": "P19.AB.00125", "latitude": "48.87756", "longitude": "2.39422", "adresse": "9 PLACE DES FETES", "codee_insee": 75119, "code_postal": "75019", "arrondissement": "PARIS 19E ARRONDISSEMENT", "complement_adresse": "PLACE DES F\u00caTES", "xy": {"lon": 2.39422, "lat": 48.87756}},{"ndeg_mobilier": "P19.AB.00054", "latitude": "48.88836", "longitude": "2.37365", "adresse": "60 AVENUE DE FLANDRE", "codee_insee": 75119, "code_postal": "75019", "arrondissement": "PARIS 19E ARRONDISSEMENT", "complement_adresse": "RIQUET", "xy": {"lon": 2.37365, "lat": 48.88836}},{"ndeg_mobilier": "P03.AB.00703", "latitude": "48.8684", "longitude": "2.35382", "adresse": "DEV N\u00b0 108 BOULEVARD SEBASTOPOL", "codee_insee": 75103, "code_postal": "75003", "arrondissement": "PARIS 03E ARRONDISSEMENT", "complement_adresse": "STRASBOURG - SAINT-DENIS", "xy": {"lon": 2.35382, "lat": 48.8684}},{"ndeg_mobilier": "P04.AB.00014", "latitude": "48.85599", "longitude": "2.34646", "adresse": "1 BOULEVARD DU PALAIS", "codee_insee": 75104, "code_postal": "75004", "arrondissement": "PARIS 04E ARRONDISSEMENT", "complement_adresse": "CIT\u00c9 - PALAIS DE JUSTICE", "xy": {"lon": 2.34646, "lat": 48.85599}},{"ndeg_mobilier": "P12.AB.00028", "latitude": "48.84562", "longitude": "2.37151", "adresse": "15 BOULEVARD DIDEROT", "codee_insee": 75112, "code_postal": "75012", "arrondissement": "PARIS 12E ARRONDISSEMENT", "complement_adresse": "GARE DE LYON - DIDEROT", "xy": {"lon": 2.37151, "lat": 48.84562}},{"ndeg_mobilier": "P18.AB.00094", "latitude": "48.8914", "longitude": "2.35001", "adresse": "38/40 RUE ORDENER", "codee_insee": 75118, "code_postal": "75018", "arrondissement": "PARIS 18E ARRONDISSEMENT", "complement_adresse": "MARCADET - POISSONNIERS", "xy": {"lon": 2.35001, "lat": 48.8914}},{"ndeg_mobilier": "P19.AB.00006", "latitude": "48.88059", "longitude": "2.37407", "adresse": "33 AVENUE SECRETAN", "codee_insee": 75119, "code_postal": "75019", "arrondissement": "PARIS 19E ARRONDISSEMENT", "complement_adresse": "MARCH\u00c9 SECR\u00c9TAN", "xy": {"lon": 2.37407, "lat": 48.88059}},{"ndeg_mobilier": "P11.AB.00091", "latitude": "48.85785", "longitude": "2.38068", "adresse": "DEV N\u00b0 136 DE LA ROQUETTE", "codee_insee": 75111, "code_postal": "75011", "arrondissement": "PARIS 11E ARRONDISSEMENT", "complement_adresse": "VOLTAIRE - L\u00c9ON BLUM", "xy": {"lon": 2.38068, "lat": 48.85785}},{"ndeg_mobilier": "P03.AB.00017", "latitude": "48.86574", "longitude": "2.35456", "adresse": "35/37 RUE REAUMUR", "codee_insee": 75103, "code_postal": "75003", "arrondissement": "PARIS 03E ARRONDISSEMENT", "complement_adresse": null, "xy": {"lon": 2.35456, "lat": 48.86574}},{"ndeg_mobilier": "P09.AB.00054", "latitude": "48.87607", "longitude": "2.34401", "adresse": "FACE 21 RUE CADET", "codee_insee": 75109, "code_postal": "75009", "arrondissement": "PARIS 09E ARRONDISSEMENT", "complement_adresse": "CADET", "xy": {"lon": 2.34401, "lat": 48.87607}},{"ndeg_mobilier": "P13.AB.00092", "latitude": "48.8268", "longitude": "2.34201", "adresse": "127 RUE DE LA GLACIERE", "codee_insee": 75113, "code_postal": "75013", "arrondissement": "PARIS 13E ARRONDISSEMENT", "complement_adresse": "GLACI\u00c8RE - TOLBIAC", "xy": {"lon": 2.34201, "lat": 48.8268}},{"ndeg_mobilier": "P16.AB.00091", "latitude": "48.8381", "longitude": "2.25779", "adresse": "232 AVENUE DE VERSAILLES", "codee_insee": 75116, "code_postal": "75016", "arrondissement": "PARIS 16E ARRONDISSEMENT", "complement_adresse": "PORTE DE SAINT-CLOUD - MURAT", "xy": {"lon": 2.25779, "lat": 48.8381}},{"ndeg_mobilier": "P07.AB.00007", "latitude": "48.85223", "longitude": "2.32667", "adresse": "FACE 39 BOULEVARD RASPAIL", "codee_insee": 75107, "code_postal": "75007", "arrondissement": "PARIS 07E ARRONDISSEMENT", "complement_adresse": "S\u00c8VRES - BABYLONE", "xy": {"lon": 2.32667, "lat": 48.85223}},{"ndeg_mobilier": "P19.AB.00730", "latitude": "48.89405", "longitude": "2.38087", "adresse": "DEV N\u00b0 163 AVENUE DE FLANDRE", "codee_insee": 75119, "code_postal": "75019", "arrondissement": "PARIS 19E ARRONDISSEMENT", "complement_adresse": null, "xy": {"lon": 2.38087, "lat": 48.89405}},{"ndeg_mobilier": "P20.AB.00089", "latitude": "48.86321", "longitude": "2.38846", "adresse": "9 PLACE AUGUSTE METIVIER", "codee_insee": 75120, "code_postal": "75020", "arrondissement": "PARIS 20E ARRONDISSEMENT", "complement_adresse": "AUGUSTE M\u00c9TIVIER", "xy": {"lon": 2.38846, "lat": 48.86321}},{"ndeg_mobilier": "P06.AB.00030", "latitude": "48.8513", "longitude": "2.3334", "adresse": "10 PLACE SAINT SULPICE", "codee_insee": 75106, "code_postal": "75006", "arrondissement": "PARIS 06E ARRONDISSEMENT", "complement_adresse": "\u00c9GLISE SAINT-SULPICE", "xy": {"lon": 2.3334, "lat": 48.8513}},{"ndeg_mobilier": "P15.AB.00061", "latitude": "48.83303", "longitude": "2.28906", "adresse": "403BIS RUE DE VAUGIRARD", "codee_insee": 75115, "code_postal": "75015", "arrondissement": "PARIS 15E ARRONDISSEMENT", "complement_adresse": "FIRMIN - GILLOT", "xy": {"lon": 2.28906, "lat": 48.83303}},{"ndeg_mobilier": "P18.AB.00106", "latitude": "48.89255", "longitude": "2.34379", "adresse": "N\u00b0 115 ORDENER ANGLE RUE SAINT ISAURE", "codee_insee": 75118, "code_postal": "75018", "arrondissement": "PARIS 18E ARRONDISSEMENT", "complement_adresse": "MAIRIE DU 18E - JULES JOFFRIN", "xy": {"lon": 2.34379, "lat": 48.89255}},{"ndeg_mobilier": "P08.AB.00004", "latitude": "48.87752", "longitude": "2.29837", "adresse": "237 RUE DU FAUBOURG ST HONORE", "codee_insee": 75108, "code_postal": "75008", "arrondissement": "PARIS 08E ARRONDISSEMENT", "complement_adresse": "TERNES", "xy": {"lon": 2.29837, "lat": 48.87752}},{"ndeg_mobilier": "P13.AB.00705", "latitude": "48.83097", "longitude": "2.37736", "adresse": "FACE N\u00b0 34 RUE NEUVE TOLBIAC", "codee_insee": 75113, "code_postal": "75013", "arrondissement": "PARIS 13E ARRONDISSEMENT", "complement_adresse": "BIBLIOTH\u00c8QUE FRAN\u00c7OIS MITTERRAND", "xy": {"lon": 2.37736, "lat": 48.83097}},{"ndeg_mobilier": "P12.AB.00083", "latitude": "48.83963", "longitude": "2.39625", "adresse": "9 PLACE FELIX EBOUE", "codee_insee": 75112, "code_postal": "75012", "arrondissement": "PARIS 12E ARRONDISSEMENT", "complement_adresse": "DOCTEUR GOUJON - REUILLY", "xy": {"lon": 2.39625, "lat": 48.83963}},{"ndeg_mobilier": "P16.AB.00124", "latitude": "48.85827", "longitude": "2.27376", "adresse": "6 CHAUSSEE DE LA MUETTE", "codee_insee": 75116, "code_postal": "75016", "arrondissement": "PARIS 16E ARRONDISSEMENT", "complement_adresse": "LA MUETTE - BOULAINVILLIERS", "xy": {"lon": 2.27376, "lat": 48.85827}},{"ndeg_mobilier": "P14.AB.00067", "latitude": "48.83199", "longitude": "2.31377", "adresse": "N\u00b0 172 RUE D'ALESIA", "codee_insee": 75114, "code_postal": "75014", "arrondissement": "PARIS 14E ARRONDISSEMENT", "complement_adresse": "PLAISANCE - H\u00d4PITAL SAINT-JOSEPH", "xy": {"lon": 2.31377, "lat": 48.83199}},{"ndeg_mobilier": "P19.AB.00014", "latitude": "48.8824", "longitude": "2.38221", "adresse": "5 PLACE ARMAND CARREL", "codee_insee": 75119, "code_postal": "75019", "arrondissement": "PARIS 19E ARRONDISSEMENT", "complement_adresse": "ARMAND CARREL - MAIRIE DU 19E", "xy": {"lon": 2.38221, "lat": 48.8824}},{"ndeg_mobilier": "P02.AB.00010", "latitude": "48.8687", "longitude": "2.3406", "adresse": "11 PLACE DE LA BOURSE", "codee_insee": 75102, "code_postal": "75002", "arrondissement": "PARIS 02E ARRONDISSEMENT", "complement_adresse": "BOURSE", "xy": {"lon": 2.3406, "lat": 48.8687}},{"ndeg_mobilier": "P15.AB.00031", "latitude": "48.84255", "longitude": "2.30216", "adresse": "118/120 RUE LECOURBE", "codee_insee": 75115, "code_postal": "75015", "arrondissement": "PARIS 15E ARRONDISSEMENT", "complement_adresse": "CAMBRONNE - LECOURBE", "xy": {"lon": 2.30216, "lat": 48.84255}},{"ndeg_mobilier": "P10.AB.00051", "latitude": "48.87218", "longitude": "2.36965", "adresse": "6 AVENUE CLAUDE VELLEFAUX", "codee_insee": 75110, "code_postal": "75010", "arrondissement": "PARIS 10E ARRONDISSEMENT", "complement_adresse": "H\u00d4PITAL SAINT-LOUIS", "xy": {"lon": 2.36965, "lat": 48.87218}},{"ndeg_mobilier": "P10.AB.00035", "latitude": "48.87077", "longitude": "2.36107", "adresse": "8 PLACE JACQUES BONSERGENT", "codee_insee": 75110, "code_postal": "75010", "arrondissement": "PARIS 10E ARRONDISSEMENT", "complement_adresse": "JACQUES BONSERGENT", "xy": {"lon": 2.36107, "lat": 48.87077}},{"ndeg_mobilier": "P18.AB.00040", "latitude": "48.88411", "longitude": "2.32847", "adresse": "132 BOULEVARD DE CLICHY", "codee_insee": 75118, "code_postal": "75018", "arrondissement": "PARIS 18E ARRONDISSEMENT", "complement_adresse": "PLACE DE CLICHY - CAULAINCOURT", "xy": {"lon": 2.32847, "lat": 48.88411}},{"ndeg_mobilier": "P13.AB.00145", "latitude": "48.81941", "longitude": "2.35923", "adresse": "192 AVENUE D'ITALIE", "codee_insee": 75113, "code_postal": "75013", "arrondissement": "PARIS 13E ARRONDISSEMENT", "complement_adresse": "PORTE D'ITALIE", "xy": {"lon": 2.35923, "lat": 48.81941}},{"ndeg_mobilier": "P20.AB.00096", "latitude": "48.86968", "longitude": "2.39363", "adresse": "112/114 RUE DE MENILMONTANT", "codee_insee": 75120, "code_postal": "75020", "arrondissement": "PARIS 20E ARRONDISSEMENT", "complement_adresse": "PYR\u00c9N\u00c9ES - M\u00c9NILMONTANT", "xy": {"lon": 2.39363, "lat": 48.86968}},{"ndeg_mobilier": "P12.AB.00159", "latitude": "48.83727", "longitude": "2.39074", "adresse": "DEV N\u00b0 35 PROUDHON", "codee_insee": 75112, "code_postal": "75012", "arrondissement": "PARIS 12E ARRONDISSEMENT", "complement_adresse": "CHARENTON - WATTIGNIES", "xy": {"lon": 2.39074, "lat": 48.83727}},{"ndeg_mobilier": "P14.AB.00730", "latitude": "48.834", "longitude": "2.33203", "adresse": "4 AVENUE DU COLONEL HENRI ROL TANGUY", "codee_insee": 75114, "code_postal": "75014", "arrondissement": "PARIS 14E ARRONDISSEMENT", "complement_adresse": "DENFERT-ROCHEREAU", "xy": {"lon": 2.33203, "lat": 48.834}},{"ndeg_mobilier": "P09.AB.00034", "latitude": "48.87219", "longitude": "2.34003", "adresse": "1 RUE DROUOT ANGLE BLD", "codee_insee": 75109, "code_postal": "75009", "arrondissement": "PARIS 09E ARRONDISSEMENT", "complement_adresse": "RICHELIEU - DROUOT - MAIRIE DU 9E", "xy": {"lon": 2.34003, "lat": 48.87219}},{"ndeg_mobilier": "P10.AB.00030", "latitude": "48.88324", "longitude": "2.36901", "adresse": "11 PLACE DE LA BATAILLE DE", "codee_insee": 75110, "code_postal": "75010", "arrondissement": "PARIS 10E ARRONDISSEMENT", "complement_adresse": "STALINGRAD", "xy": {"lon": 2.36901, "lat": 48.88324}},{"ndeg_mobilier": "P17.AB.00012", "latitude": "48.87861", "longitude": "2.29474", "adresse": "24 AVENUE DES TERNES", "codee_insee": 75117, "code_postal": "75017", "arrondissement": "PARIS 17E ARRONDISSEMENT", "complement_adresse": "TERNES - MAC MAHON", "xy": {"lon": 2.29474, "lat": 48.87861}}]